FENGYUN 1C DEB          
1 31369U 99025BRZ 17345.33130848  .00000070  00000-0  55330-4 0  9994
2 31369  98.6867  22.6182 0058057  77.4797 339.7972 14.16787954556025
